[{"OBJECT_NAME":"STARLINK-6354","OBJECT_ID":"2023-078T","EPOCH":"2026-03-09T23:24:08.751456","MEAN_MOTION":14.98325919,"ECCENTRICITY":0.00024827,"INCLINATION":70.0007,"RA_OF_ASC_NODE":323.8448,"ARG_OF_PERICENTER":254.9219,"MEAN_ANOMALY":105.1665,"EPHEMERIS_TYPE":0,"CLASSIFICATION_TYPE":"U","NORAD_CAT_ID":56784,"ELEMENT_SET_NO":999,"REV_AT_EPOCH":15321,"BSTAR":-6.2120621e-5,"MEAN_MOTION_DOT":-8.34e-6,"MEAN_MOTION_DDOT":0},{"OBJECT_NAME":"FENGYUN 1C DEB","OBJECT_ID":"1999-025EB","EPOCH":"2026-03-09T21:27:48.971520","MEAN_MOTION":14.9364801,"ECCENTRICITY":0.00856057,"INCLINATION":99.085,"RA_OF_ASC_NODE":69.4314,"ARG_OF_PERICENTER":339.4426,"MEAN_ANOMALY":20.3352,"EPHEMERIS_TYPE":0,"CLASSIFICATION_TYPE":"U","NORAD_CAT_ID":29833,"ELEMENT_SET_NO":999,"REV_AT_EPOCH":1871,"BSTAR":0.0015409165,"MEAN_MOTION_DOT":0.00017454,"MEAN_MOTION_DDOT":0}]
